[{"OBJECT_NAME":"ONEWEB-0404","OBJECT_ID":"2021-132R","EPOCH":"2026-04-03T06:07:53.073696","MEAN_MOTION":13.11417682,"ECCENTRICITY":0.0001526,"INCLINATION":87.8905,"RA_OF_ASC_NODE":35.9626,"ARG_OF_PERICENTER":76.8056,"MEAN_ANOMALY":283.3242,"EPHEMERIS_TYPE":0,"CLASSIFICATION_TYPE":"U","NORAD_CAT_ID":50484,"ELEMENT_SET_NO":999,"REV_AT_EPOCH":20587,"BSTAR":-0.0012706999999999998,"MEAN_MOTION_DOT":-4.38e-06,"MEAN_MOTION_DDOT":0.0},{"OBJECT_NAME":"ONEWEB-0405","OBJECT_ID":"2021-132S","EPOCH":"2026-04-03T05:49:01.632000","MEAN_MOTION":13.18687557,"ECCENTRICITY":0.0001955,"INCLINATION":87.9239,"RA_OF_ASC_NODE":350.3333,"ARG_OF_PERICENTER":64.1838,"MEAN_ANOMALY":295.9496,"EPHEMERIS_TYPE":0,"CLASSIFICATION_TYPE":"U","NORAD_CAT_ID":50485,"ELEMENT_SET_NO":999,"REV_AT_EPOCH":21211,"BSTAR":0.00027075,"MEAN_MOTION_DOT":1.2e-06,"MEAN_MOTION_DDOT":0.0},{"OBJECT_NAME":"ONEWEB-0406","OBJECT_ID":"2021-132T","EPOCH":"2026-04-03T05:34:46.073280","MEAN_MOTION":13.18687647,"ECCENTRICITY":0.0001269,"INCLINATION":87.9232,"RA_OF_ASC_NODE":350.3582,"ARG_OF_PERICENTER":78.5558,"MEAN_ANOMALY":281.5716,"EPHEMERIS_TYPE":0,"CLASSIFICATION_TYPE":"U","NORAD_CAT_ID":50486,"ELEMENT_SET_NO":999,"REV_AT_EPOCH":21174,"BSTAR":0.00015902,"MEAN_MOTION_DOT":7.6e-07,"MEAN_MOTION_DDOT":0.0},{"OBJECT_NAME":"ONEWEB-0407","OBJECT_ID":"2021-132U","EPOCH":"2026-04-03T05:25:16.201344","MEAN_MOTION":13.18688475,"ECCENTRICITY":0.0001918,"INCLINATION":87.9238,"RA_OF_ASC_NODE":350.3453,"ARG_OF_PERICENTER":81.6667,"MEAN_ANOMALY":278.4683,"EPHEMERIS_TYPE":0,"CLASSIFICATION_TYPE":"U","NORAD_CAT_ID":50487,"ELEMENT_SET_NO":999,"REV_AT_EPOCH":21168,"BSTAR":0.0003416,"MEAN_MOTION_DOT":1.48e-06,"MEAN_MOTION_DDOT":0.0},{"OBJECT_NAME":"ONEWEB-0409","OBJECT_ID":"2021-132V","EPOCH":"2026-04-03T06:05:26.654208","MEAN_MOTION":13.11416646,"ECCENTRICITY":0.0001623,"INCLINATION":87.8914,"RA_OF_ASC_NODE":35.9456,"ARG_OF_PERICENTER":74.3477,"MEAN_ANOMALY":285.783,"EPHEMERIS_TYPE":0,"CLASSIFICATION_TYPE":"U","NORAD_CAT_ID":50488,"ELEMENT_SET_NO":999,"REV_AT_EPOCH":20576,"BSTAR":-0.0013617000000000002,"MEAN_MOTION_DOT":-4.7e-06,"MEAN_MOTION_DDOT":0.0},{"OBJECT_NAME":"ONEWEB-0412","OBJECT_ID":"2021-132W","EPOCH":"2026-04-03T03:19:23.115072","MEAN_MOTION":13.18688063,"ECCENTRICITY":0.0001833,"INCLINATION":87.9234,"RA_OF_ASC_NODE":350.3753,"ARG_OF_PERICENTER":88.9986,"MEAN_ANOMALY":271.1356,"EPHEMERIS_TYPE":0,"CLASSIFICATION_TYPE":"U","NORAD_CAT_ID":50489,"ELEMENT_SET_NO":999,"REV_AT_EPOCH":21176,"BSTAR":0.00021662000000000002,"MEAN_MOTION_DOT":9.8e-07,"MEAN_MOTION_DDOT":0.0},{"OBJECT_NAME":"ONEWEB-0413","OBJECT_ID":"2021-132X","EPOCH":"2026-04-03T05:15:45.372960","MEAN_MOTION":13.18688969,"ECCENTRICITY":0.0001947,"INCLINATION":87.923,"RA_OF_ASC_NODE":350.3619,"ARG_OF_PERICENTER":86.4494,"MEAN_ANOMALY":273.6861,"EPHEMERIS_TYPE":0,"CLASSIFICATION_TYPE":"U","NORAD_CAT_ID":50490,"ELEMENT_SET_NO":999,"REV_AT_EPOCH":21171,"BSTAR":0.00016020999999999999,"MEAN_MOTION_DOT":7.6e-07,"MEAN_MOTION_DDOT":0.0},{"OBJECT_NAME":"ONEWEB-0414","OBJECT_ID":"2021-132Y","EPOCH":"2026-04-03T04:54:22.532544","MEAN_MOTION":13.18685882,"ECCENTRICITY":0.0001711,"INCLINATION":87.9241,"RA_OF_ASC_NODE":350.339,"ARG_OF_PERICENTER":84.9163,"MEAN_ANOMALY":275.2164,"EPHEMERIS_TYPE":0,"CLASSIFICATION_TYPE":"U","NORAD_CAT_ID":50491,"ELEMENT_SET_NO":999,"REV_AT_EPOCH":21174,"BSTAR":-0.0003278,"MEAN_MOTION_DOT":-1.16e-06,"MEAN_MOTION_DDOT":0.0},{"OBJECT_NAME":"ONEWEB-0417","OBJECT_ID":"2021-132Z","EPOCH":"2026-04-03T05:06:16.237152","MEAN_MOTION":13.18687067,"ECCENTRICITY":0.0001511,"INCLINATION":87.9231,"RA_OF_ASC_NODE":350.3634,"ARG_OF_PERICENTER":76.0746,"MEAN_ANOMALY":284.0555,"EPHEMERIS_TYPE":0,"CLASSIFICATION_TYPE":"U","NORAD_CAT_ID":50492,"ELEMENT_SET_NO":999,"REV_AT_EPOCH":21172,"BSTAR":0.00036615,"MEAN_MOTION_DOT":1.57e-06,"MEAN_MOTION_DDOT":0.0},{"OBJECT_NAME":"ONEWEB-0418","OBJECT_ID":"2021-132AA","EPOCH":"2026-04-03T05:20:20.146560","MEAN_MOTION":13.18684225,"ECCENTRICITY":0.0001307,"INCLINATION":87.9242,"RA_OF_ASC_NODE":350.3538,"ARG_OF_PERICENTER":73.9843,"MEAN_ANOMALY":286.1433,"EPHEMERIS_TYPE":0,"CLASSIFICATION_TYPE":"U","NORAD_CAT_ID":50493,"ELEMENT_SET_NO":999,"REV_AT_EPOCH":21178,"BSTAR":0.0015203,"MEAN_MOTION_DOT":6.12e-06,"MEAN_MOTION_DDOT":0.0},{"OBJECT_NAME":"ONEWEB-0419","OBJECT_ID":"2021-132AB","EPOCH":"2026-04-03T05:46:38.220960","MEAN_MOTION":13.18685717,"ECCENTRICITY":0.0001669,"INCLINATION":87.924,"RA_OF_ASC_NODE":350.3502,"ARG_OF_PERICENTER":70.3181,"MEAN_ANOMALY":289.8131,"EPHEMERIS_TYPE":0,"CLASSIFICATION_TYPE":"U","NORAD_CAT_ID":50494,"ELEMENT_SET_NO":999,"REV_AT_EPOCH":21170,"BSTAR":0.00010668,"MEAN_MOTION_DOT":5.5e-07,"MEAN_MOTION_DDOT":0.0},{"OBJECT_NAME":"ONEWEB-0420","OBJECT_ID":"2021-132AC","EPOCH":"2026-04-03T04:56:46.302144","MEAN_MOTION":13.18686442,"ECCENTRICITY":0.0001956,"INCLINATION":87.9231,"RA_OF_ASC_NODE":350.3668,"ARG_OF_PERICENTER":80.2536,"MEAN_ANOMALY":279.8817,"EPHEMERIS_TYPE":0,"CLASSIFICATION_TYPE":"U","NORAD_CAT_ID":50495,"ELEMENT_SET_NO":999,"REV_AT_EPOCH":21169,"BSTAR":0.00013947999999999999,"MEAN_MOTION_DOT":6.8e-07,"MEAN_MOTION_DDOT":0.0},{"OBJECT_NAME":"ONEWEB-0421","OBJECT_ID":"2021-132AD","EPOCH":"2026-04-02T23:19:28.182144","MEAN_MOTION":13.18699606,"ECCENTRICITY":0.0002098,"INCLINATION":87.9229,"RA_OF_ASC_NODE":350.4063,"ARG_OF_PERICENTER":85.5478,"MEAN_ANOMALY":274.5894,"EPHEMERIS_TYPE":0,"CLASSIFICATION_TYPE":"U","NORAD_CAT_ID":50496,"ELEMENT_SET_NO":999,"REV_AT_EPOCH":21170,"BSTAR":-0.0076185,"MEAN_MOTION_DOT":-2.99e-05,"MEAN_MOTION_DDOT":0.0},{"OBJECT_NAME":"ONEWEB-0424","OBJECT_ID":"2021-132AE","EPOCH":"2026-04-03T05:39:30.984192","MEAN_MOTION":13.18685131,"ECCENTRICITY":0.0001782,"INCLINATION":87.9241,"RA_OF_ASC_NODE":350.3503,"ARG_OF_PERICENTER":68.5875,"MEAN_ANOMALY":291.5447,"EPHEMERIS_TYPE":0,"CLASSIFICATION_TYPE":"U","NORAD_CAT_ID":50497,"ELEMENT_SET_NO":999,"REV_AT_EPOCH":21176,"BSTAR":0.0003548,"MEAN_MOTION_DOT":1.53e-06,"MEAN_MOTION_DDOT":0.0},{"OBJECT_NAME":"ONEWEB-0426","OBJECT_ID":"2021-132AF","EPOCH":"2026-04-03T04:42:31.112352","MEAN_MOTION":13.18688563,"ECCENTRICITY":0.0001215,"INCLINATION":87.924,"RA_OF_ASC_NODE":350.3502,"ARG_OF_PERICENTER":97.3355,"MEAN_ANOMALY":262.7915,"EPHEMERIS_TYPE":0,"CLASSIFICATION_TYPE":"U","NORAD_CAT_ID":50498,"ELEMENT_SET_NO":999,"REV_AT_EPOCH":21170,"BSTAR":0.00028744999999999997,"MEAN_MOTION_DOT":1.26e-06,"MEAN_MOTION_DDOT":0.0},{"OBJECT_NAME":"ONEWEB-0427","OBJECT_ID":"2021-132AG","EPOCH":"2026-04-03T05:37:07.993056","MEAN_MOTION":13.18687767,"ECCENTRICITY":0.0001493,"INCLINATION":87.9242,"RA_OF_ASC_NODE":350.3295,"ARG_OF_PERICENTER":77.5301,"MEAN_ANOMALY":282.5999,"EPHEMERIS_TYPE":0,"CLASSIFICATION_TYPE":"U","NORAD_CAT_ID":50499,"ELEMENT_SET_NO":999,"REV_AT_EPOCH":21173,"BSTAR":0.00021303,"MEAN_MOTION_DOT":9.7e-07,"MEAN_MOTION_DDOT":0.0}]