ONEWEB-0404             
1 50484U 21132R   26093.25547539 -.00000438  00000+0 -12707-2 0  9995
2 50484  87.8905  35.9626 0001526  76.8056 283.3242 13.11417682205877
ONEWEB-0405             
1 50485U 21132S   26093.24238000  .00000120  00000+0  27075-3 0  9996
2 50485  87.9239 350.3333 0001955  64.1838 295.9496 13.18687557212114
ONEWEB-0406             
1 50486U 21132T   26093.23247770  .00000076  00000+0  15902-3 0  9996
2 50486  87.9232 350.3582 0001269  78.5558 281.5716 13.18687647211744
ONEWEB-0407             
1 50487U 21132U   26093.22588196  .00000148  00000+0  34160-3 0  9993
2 50487  87.9238 350.3453 0001918  81.6667 278.4683 13.18688475211686
ONEWEB-0409             
1 50488U 21132V   26093.25378072 -.00000470  00000+0 -13617-2 0  9990
2 50488  87.8914  35.9456 0001623  74.3477 285.7830 13.11416646205766
ONEWEB-0412             
1 50489U 21132W   26093.13846198  .00000098  00000+0  21662-3 0  9991
2 50489  87.9234 350.3753 0001833  88.9986 271.1356 13.18688063211766
ONEWEB-0413             
1 50490U 21132X   26093.21927515  .00000076  00000+0  16021-3 0  9994
2 50490  87.9230 350.3619 0001947  86.4494 273.6861 13.18688969211716
ONEWEB-0414             
1 50491U 21132Y   26093.20442746 -.00000116  00000+0 -32780-3 0  9999
2 50491  87.9241 350.3390 0001711  84.9163 275.2164 13.18685882211748
ONEWEB-0417             
1 50492U 21132Z   26093.21268793  .00000157  00000+0  36615-3 0  9993
2 50492  87.9231 350.3634 0001511  76.0746 284.0555 13.18687067211723
ONEWEB-0418             
1 50493U 21132AA  26093.22245540  .00000612  00000+0  15203-2 0  9995
2 50493  87.9242 350.3538 0001307  73.9843 286.1433 13.18684225211783
ONEWEB-0419             
1 50494U 21132AB  26093.24072015  .00000055  00000+0  10668-3 0  9995
2 50494  87.9240 350.3502 0001669  70.3181 289.8131 13.18685717211704
ONEWEB-0420             
1 50495U 21132AC  26093.20609146  .00000068  00000+0  13948-3 0  9991
2 50495  87.9231 350.3668 0001956  80.2536 279.8817 13.18686442211695
ONEWEB-0421             
1 50496U 21132AD  26092.97185396 -.00002990  00000+0 -76185-2 0  9990
2 50496  87.9229 350.4063 0002098  85.5478 274.5894 13.18699606211709
ONEWEB-0424             
1 50497U 21132AE  26093.23577528  .00000153  00000+0  35480-3 0  9994
2 50497  87.9241 350.3503 0001782  68.5875 291.5447 13.18685131211760
ONEWEB-0426             
1 50498U 21132AF  26093.19619343  .00000126  00000+0  28745-3 0  9998
2 50498  87.9240 350.3502 0001215  97.3355 262.7915 13.18688563211709
ONEWEB-0427             
1 50499U 21132AG  26093.23412029  .00000097  00000+0  21303-3 0  9996
2 50499  87.9242 350.3295 0001493  77.5301 282.5999 13.18687767211730
